STARS (KUKAI)           
1 33498U 09002G   26139.78565669  .00002465  00000+0  22802-3 0  9994
2 33498  98.1537  85.9429 0006808 262.6672  97.3774 14.95528146934235
KKS-1 (KISEKI)          
1 33499U 09002H   26140.18992012  .00000802  00000+0  10543-3 0  9999
2 33499  98.1194  62.1898 0008621  30.5360 329.6354 14.83041277932047
UK-DMC 2                
1 35683U 09041C   26140.22788641  .00000451  00000+0  72691-4 0  9998
2 35683  97.8803 275.8845 0001612  78.6876 281.4515 14.75977956902448
OCEANSAT-2              
1 35931U 09051A   26140.24854722  .00000279  00000+0  21671-3 0  9990
2 35931  98.2302 129.8904 0014804 320.6406  39.3684 13.99651374875425
SWISSCUBE               
1 35932U 09051B   26140.18538030  .00000626  00000+0  13360-3 0  9997
2 35932  98.4054  47.5847 0005732 309.0564  51.0126 14.62420263885065
BEESAT-1                
1 35933U 09051C   26140.18033448  .00000527  00000+0  11584-3 0  9997
2 35933  98.3982  47.2734 0004525 328.5658  31.5271 14.61668552885097
ITUPSAT1                
1 35935U 09051E   26140.14674660  .00000487  00000+0  11071-3 0  9998
2 35935  98.4068  46.4608 0006934 336.2041  23.8837 14.60392785884647
DMSP 5D-3 F18 (USA 210) 
1 35951U 09057A   26140.20811733  .00000208  00000+0  13080-3 0  9996
2 35951  98.9028 121.0406 0010608 336.7582  23.3110 14.14879644855639
PROBA-2                 
1 36037U 09059B   26140.04238985  .00000088  00000+0  31119-4 0  9998
2 36037  98.2448 323.7861 0013506  13.5283 346.6274 14.54848980877435
YAOGAN-7                
1 36110U 09069A   26140.19627036  .00000279  00000+0  45811-4 0  9992
2 36110  98.0105  26.2318 0025699 127.4837 232.8716 14.77977953885493
XIWANG-1 (HOPE-1)       
1 36122U 09072B   26140.20020707 -.00000052  00000+0 -19132-4 0  9991
2 36122 100.4019  94.4824 0006990 301.5552  58.4878 13.16438786789323
COSMOS 2463             
1 36519U 10017A   26140.12897052  .00000044  00000+0  32234-4 0  9995
2 36519  82.9595 270.3213 0035620 205.8865 327.4595 13.71663603804083
CARTOSAT-2B             
1 36795U 10035A   26140.12099486  .00000569  00000+0  84832-4 0  9999
2 36795  97.9966 190.8466 0009990 283.5801  76.4297 14.78622601855703
TISAT 1                 
1 36799U 10035E   26140.08063675  .00015156  00000+0  51587-3 0  9997
2 36799  98.0705  84.1655 0002862  40.1256 320.0193 15.30526645863406
YAOGAN-10               
1 36834U 10038A   26140.19680238  .00000897  00000+0  11078-3 0  9999
2 36834  97.8988 163.8243 0001600  92.8162 356.5695 14.85253393853050
SHIJIAN-6 04B (SJ-6 04B)
1 37180U 10051B   26140.19244781 -.00000095  00000+0 -27128-5 0  9995
2 37180  97.8701 145.3194 0011679  42.5572 317.6553 14.99258261851482
FENGYUN 3B              
1 37214U 10059A   26140.23223825 -.00000104  00000+0 -30082-4 0  9995
2 37214  98.9633 186.1249 0020917 265.9106 174.7047 14.14834156803475
COSMO-SKYMED 4          
1 37216U 10060A   26140.22435321  .00000268  00000+0  40278-4 0  9991
2 37216  97.8882 324.2293 0001423  84.6839 275.4536 14.82158846840423
O/OREOS (USA 219)       
1 37224U 10062C   26140.06762801  .00001216  00000+0  12101-3 0  9997
2 37224  71.9679 144.0277 0012713 124.7310 235.5060 14.93609842112445
RESOURCESAT-2           
1 37387U 11015A   26140.14710785  .00000044  00000+0  40337-4 0  9990
2 37387  98.7652 207.7806 0010786 344.1847  15.8992 14.21605560782191
YOUTHSAT                
1 37388U 11015B   26140.21299727  .00000116  00000+0  66161-4 0  9990
2 37388  98.3671 115.5317 0015686  66.0865 304.8824 14.25617054783658
APRIZESAT 6             
1 37793U 11044F   26140.18449811  .00000383  00000+0  61686-4 0  9992
2 37793  98.2380  50.1109 0043203 173.7559 346.4816 14.76871844793018
JUGNU                   
1 37839U 11058B   26140.13967958  .00000362  00000+0  49699-4 0  9997
2 37839  19.9595 118.8197 0018756 126.4931 318.1080 14.13767589755052
SRMSAT                  
1 37841U 11058D   26139.96329214  .00000358  00000+0  50483-4 0  9994
2 37841  19.9713 230.3070 0011590 253.8577 262.4543 14.11568954753828
SUOMI NPP               
1 37849U 11061A   26140.21654191  .00000057  00000+0  47960-4 0  9993
2 37849  98.7945  81.2857 0002719  61.7440 298.4010 14.19510853754475
YAOGAN-12               
1 37875U 11066B   26140.14233044  .00003737  00000+0  14701-3 0  9993
2 37875  97.1155 180.0336 0008784 335.4696  24.6124 15.26202517807762
