OBJECT_NAME,OBJECT_ID,EPOCH,MEAN_MOTION,ECCENTRICITY,INCLINATION,RA_OF_ASC_NODE,ARG_OF_PERICENTER,MEAN_ANOMALY,EPHEMERIS_TYPE,CLASSIFICATION_TYPE,NORAD_CAT_ID,ELEMENT_SET_NO,REV_AT_EPOCH,BSTAR,MEAN_MOTION_DOT,MEAN_MOTION_DDOT
STARS (KUKAI),2009-002G,2026-05-19T18:51:20.738016,14.95528146,.00068083,98.1537,85.9429,262.6672,97.3774,0,U,33498,999,93423,.22801816E-3,.2465E-4,0
KKS-1 (KISEKI),2009-002H,2026-05-20T04:33:29.098368,14.83041277,.0008621,98.1194,62.1898,30.5360,329.6354,0,U,33499,999,93204,.10543E-3,.802E-5,0
UK-DMC 2,2009-041C,2026-05-20T05:28:09.385824,14.75977956,.0001612,97.8803,275.8845,78.6876,281.4515,0,U,35683,999,90244,.72691E-4,.451E-5,0
OCEANSAT-2,2009-051A,2026-05-20T05:57:54.479808,13.99651374,.0014804,98.2302,129.8904,320.6406,39.3684,0,U,35931,999,87542,.21671E-3,.279E-5,0
SWISSCUBE,2009-051B,2026-05-20T04:26:56.857920,14.62420263,.0005732,98.4054,47.5847,309.0564,51.0126,0,U,35932,999,88506,.1336E-3,.626E-5,0
BEESAT-1,2009-051C,2026-05-20T04:19:40.899072,14.61668552,.0004525,98.3982,47.2734,328.5658,31.5271,0,U,35933,999,88509,.11584E-3,.527E-5,0
ITUPSAT1,2009-051E,2026-05-20T03:31:18.906240,14.60392785,.0006934,98.4068,46.4608,336.2041,23.8837,0,U,35935,999,88464,.11071E-3,.487E-5,0
DMSP 5D-3 F18 (USA 210),2009-057A,2026-05-20T04:59:41.337312,14.14879644,.0010608,98.9028,121.0406,336.7582,23.3110,0,U,35951,999,85563,.1308E-3,.208E-5,0
PROBA-2,2009-059B,2026-05-20T01:01:02.483040,14.54848980,.0013506,98.2448,323.7861,13.5283,346.6274,0,U,36037,999,87743,.31119E-4,.88E-6,0
YAOGAN-7,2009-069A,2026-05-20T04:42:37.759104,14.77977953,.0025699,98.0105,26.2318,127.4837,232.8716,0,U,36110,999,88549,.45811E-4,.279E-5,0
XIWANG-1 (HOPE-1),2009-072B,2026-05-20T04:48:17.890848,13.16438786,.000699,100.4019,94.4824,301.5552,58.4878,0,U,36122,999,78932,-.19132E-4,-.52E-6,0
COSMOS 2463,2010-017A,2026-05-20T03:05:43.052928,13.71663603,.003562,82.9595,270.3213,205.8865,327.4595,0,U,36519,999,80408,.32234E-4,.44E-6,0
CARTOSAT-2B,2010-035A,2026-05-20T02:54:13.955904,14.78622601,.000999,97.9966,190.8466,283.5801,76.4297,0,U,36795,999,85570,.84832E-4,.569E-5,0
TISAT 1,2010-035E,2026-05-20T01:56:07.015200,15.30526645,.0002862,98.0705,84.1655,40.1256,320.0193,0,U,36799,999,86340,.51587E-3,.15156E-3,0
YAOGAN-10,2010-038A,2026-05-20T04:43:23.725632,14.85253393,.00016,97.8988,163.8243,92.8162,356.5695,0,U,36834,999,85305,.11078E-3,.897E-5,0
SHIJIAN-6 04B (SJ-6 04B),2010-051B,2026-05-20T04:37:07.490784,14.99258261,.0011679,97.8701,145.3194,42.5572,317.6553,0,U,37180,999,85148,-.27128E-5,-.95E-6,0
FENGYUN 3B,2010-059A,2026-05-20T05:34:25.384800,14.14834156,.0020917,98.9633,186.1249,265.9106,174.7047,0,U,37214,999,80347,-.30082E-4,-.104E-5,0
COSMO-SKYMED 4,2010-060A,2026-05-20T05:23:04.117344,14.82158846,.0001423,97.8882,324.2293,84.6839,275.4536,0,U,37216,999,84042,.40278E-4,.268E-5,0
O/OREOS (USA 219),2010-062C,2026-05-20T01:37:23.060064,14.93609842,.0012713,71.9679,144.0277,124.7310,235.5060,0,U,37224,999,11244,.12101E-3,.1216E-4,0
RESOURCESAT-2,2011-015A,2026-05-20T03:31:50.118240,14.21605560,.0010786,98.7652,207.7806,344.1847,15.8992,0,U,37387,999,78219,.40337E-4,.44E-6,0
YOUTHSAT,2011-015B,2026-05-20T05:06:42.964128,14.25617054,.0015686,98.3671,115.5317,66.0865,304.8824,0,U,37388,999,78365,.66161E-4,.116E-5,0
APRIZESAT 6,2011-044F,2026-05-20T04:25:40.636704,14.76871844,.0043203,98.2380,50.1109,173.7559,346.4816,0,U,37793,999,79301,.61686E-4,.383E-5,0
JUGNU,2011-058B,2026-05-20T03:21:08.315712,14.13767589,.0018756,19.9595,118.8197,126.4931,318.1080,0,U,37839,999,75505,.49699E-4,.362E-5,0
SRMSAT,2011-058D,2026-05-19T23:07:08.440896,14.11568954,.001159,19.9713,230.3070,253.8577,262.4543,0,U,37841,999,75382,.50483E-4,.358E-5,0
SUOMI NPP,2011-061A,2026-05-20T05:11:49.221024,14.19510853,.0002719,98.7945,81.2857,61.7440,298.4010,0,U,37849,999,75447,.4796E-4,.57E-6,0
YAOGAN-12,2011-066B,2026-05-20T03:24:57.350016,15.26202517,.0008784,97.1155,180.0336,335.4696,24.6124,0,U,37875,999,80776,.14701E-3,.3737E-4,0
